{"type": "FeatureCollection", "features": [ {"type": "Feature", "properties": {"norad_id": 66799, "name": "STARLINK-36044", "group": "last-30-days", "lat": -4.053419438783035, "lon": -1.2638454851426755, "alt_km": 415.3276579227122, "timestamp": "2025-12-25T16:53:13.372567+00:00", "meta": {"OBJECT_NAME": "STARLINK-36044", "OBJECT_ID": "2025-278J", "EPOCH": "2025-12-25T08:00:01.000224", "MEAN_MOTION": 15.50513153, "ECCENTRICITY": 0.00016119, "INCLINATION": 43.0004, "RA_OF_ASC_NODE": 176.5411, "ARG_OF_PERICENTER": 271.9604, "MEAN_ANOMALY": 4.5532, "EPHEMERIS_TYPE": 0, "CLASSIFICATION_TYPE": "U", "NORAD_CAT_ID": 66799, "ELEMENT_SET_NO": 999, "REV_AT_EPOCH": 498, "BSTAR": 0.0012065214, "MEAN_MOTION_DOT": 0.00070916, "MEAN_MOTION_DDOT": 0}, "tle": {"line1": "1 66799U 25278J   25359.33334491  .00070916  00000+0  12065-2 0  9993", "line2": "2 66799  43.0004 176.5411 0001611 271.9604   4.5532 15.50513153  4982"}}, "geometry": {"type": "Point", "coordinates": [-1.2638454851426755, -4.053419438783035]}}, {"type": "Feature", "properties": {"norad_id": 66800, "name": "STARLINK-35996", "group": "last-30-days", "lat": -6.66204928320836, "lon": 1.5660646524692026, "alt_km": 415.31754822614766, "timestamp": "2025-12-25T16:53:13.372577+00:00", "meta": {"OBJECT_NAME": "STARLINK-35996", "OBJECT_ID": "2025-278K", "EPOCH": "2025-12-25T08:00:01.000224", "MEAN_MOTION": 15.5047615, "ECCENTRICITY": 0.00016664, "INCLINATION": 43.0004, "RA_OF_ASC_NODE": 176.5317, "ARG_OF_PERICENTER": 257.0116, "MEAN_ANOMALY": 23.3821, "EPHEMERIS_TYPE": 0, "CLASSIFICATION_TYPE": "U", "NORAD_CAT_ID": 66800, "ELEMENT_SET_NO": 999, "REV_AT_EPOCH": 477, "BSTAR": 0.0017452421, "MEAN_MOTION_DOT": 0.00103023, "MEAN_MOTION_DDOT": 0}, "tle": {"line1": "1 66800U 25278K   25359.33334491  .00103023  00000+0  17452-2 0  9997", "line2": "2 66800  43.0004 176.5317 0001666 257.0116  23.3821 15.50476150  4775"}}, "geometry": {"type": "Point", "coordinates": [1.5660646524692026, -6.66204928320836]}}, {"type": "Feature", "properties": {"norad_id": 66801, "name": "STARLINK-36080", "group": "last-30-days", "lat": -13.065386011242513, "lon": 8.760513351028646, "alt_km": 415.94750669666246, "timestamp": "2025-12-25T16:53:13.372591+00:00", "meta": {"OBJECT_NAME": "STARLINK-36080", "OBJECT_ID": "2025-278L", "EPOCH": "2025-12-25T08:00:01.000224", "MEAN_MOTION": 15.50512389, "ECCENTRICITY": 0.00019789, "INCLINATION": 43.0003, "RA_OF_ASC_NODE": 176.506, "ARG_OF_PERICENTER": 268.5407, "MEAN_ANOMALY": 21.3936, "EPHEMERIS_TYPE": 0, "CLASSIFICATION_TYPE": "U", "NORAD_CAT_ID": 66801, "ELEMENT_SET_NO": 999, "REV_AT_EPOCH": 498, "BSTAR": 0.0012312115, "MEAN_MOTION_DOT": 0.00072388, "MEAN_MOTION_DDOT": 0}, "tle": {"line1": "1 66801U 25278L   25359.33334491  .00072388  00000+0  12312-2 0  9997", "line2": "2 66801  43.0003 176.5060 0001978 268.5407  21.3936 15.50512389  4989"}}, "geometry": {"type": "Point", "coordinates": [8.760513351028646, -13.065386011242513]}}, {"type": "Feature", "properties": {"norad_id": 66802, "name": "STARLINK-35604", "group": "last-30-days", "lat": -5.35614928428998, "lon": 0.1439821391148122, "alt_km": 415.4130838137362, "timestamp": "2025-12-25T16:53:13.372602+00:00", "meta": {"OBJECT_NAME": "STARLINK-35604", "OBJECT_ID": "2025-278M", "EPOCH": "2025-12-25T08:00:01.000224", "MEAN_MOTION": 15.50500245, "ECCENTRICITY": 0.00018802, "INCLINATION": 43.0003, "RA_OF_ASC_NODE": 176.5358, "ARG_OF_PERICENTER": 269.8567, "MEAN_ANOMALY": 8.5921, "EPHEMERIS_TYPE": 0, "CLASSIFICATION_TYPE": "U", "NORAD_CAT_ID": 66802, "ELEMENT_SET_NO": 999, "REV_AT_EPOCH": 498, "BSTAR": 0.0013314778, "MEAN_MOTION_DOT": 0.00078336, "MEAN_MOTION_DDOT": 0}, "tle": {"line1": "1 66802U 25278M   25359.33334491  .00078336  00000+0  13315-2 0  9991", "line2": "2 66802  43.0003 176.5358 0001880 269.8567   8.5921 15.50500245  4982"}}, "geometry": {"type": "Point", "coordinates": [0.1439821391148122, -5.35614928428998]}}, {"type": "Feature", "properties": {"norad_id": 66803, "name": "STARLINK-35565", "group": "last-30-days", "lat": 8.64063353099265, "lon": -14.964312547151305, "alt_km": 436.51413245980984, "timestamp": "2025-12-25T16:53:13.372612+00:00", "meta": {"OBJECT_NAME": "STARLINK-35565", "OBJECT_ID": "2025-278N", "EPOCH": "2025-12-25T08:00:01.000224", "MEAN_MOTION": 15.44377836, "ECCENTRICITY": 0.00010238, "INCLINATION": 43.0014, "RA_OF_ASC_NODE": 176.5642, "ARG_OF_PERICENTER": 259.574, "MEAN_ANOMALY": 7.5327, "EPHEMERIS_TYPE": 0, "CLASSIFICATION_TYPE": "U", "NORAD_CAT_ID": 66803, "ELEMENT_SET_NO": 999, "REV_AT_EPOCH": 507, "BSTAR": -0.0453138, "MEAN_MOTION_DOT": -0.01918907, "MEAN_MOTION_DDOT": 0}, "tle": {"line1": "1 66803U 25278N   25359.33334491 -.01918907  00000+0 -45314-1 0  9995", "line2": "2 66803  43.0014 176.5642 0001023 259.5740   7.5327 15.44377836  5070"}}, "geometry": {"type": "Point", "coordinates": [-14.964312547151305, 8.64063353099265]}}, {"type": "Feature", "properties": {"norad_id": 66804, "name": "STARLINK-36038", "group": "last-30-days", "lat": 3.0637065449865672, "lon": -8.890627914508057, "alt_km": 432.76477635882566, "timestamp": "2025-12-25T16:53:13.372625+00:00", "meta": {"OBJECT_NAME": "STARLINK-36038", "OBJECT_ID": "2025-278P", "EPOCH": "2025-12-25T08:00:01.000224", "MEAN_MOTION": 15.45728051, "ECCENTRICITY": 0.00012573, "INCLINATION": 43.0002, "RA_OF_ASC_NODE": 176.5503, "ARG_OF_PERICENTER": 258.4712, "MEAN_ANOMALY": 14.9726, "EPHEMERIS_TYPE": 0, "CLASSIFICATION_TYPE": "U", "NORAD_CAT_ID": 66804, "ELEMENT_SET_NO": 999, "REV_AT_EPOCH": 498, "BSTAR": -0.039387505, "MEAN_MOTION_DOT": -0.0173485, "MEAN_MOTION_DDOT": 0}, "tle": {"line1": "1 66804U 25278P   25359.33334491 -.01734850  00000+0 -39388-1 0  9993", "line2": "2 66804  43.0002 176.5503 0001257 258.4712  14.9726 15.45728051  4984"}}, "geometry": {"type": "Point", "coordinates": [-8.890627914508057, 3.0637065449865672]}}, {"type": "Feature", "properties": {"norad_id": 66805, "name": "STARLINK-36049", "group": "last-30-days", "lat": -7.895389377062757, "lon": 2.9169094960848176, "alt_km": 426.6170452019587, "timestamp": "2025-12-25T16:53:13.372635+00:00", "meta": {"OBJECT_NAME": "STARLINK-36049", "OBJECT_ID": "2025-278Q", "EPOCH": "2025-12-25T08:00:01.000224", "MEAN_MOTION": 15.48431112, "ECCENTRICITY": 0.00013353, "INCLINATION": 43.0002, "RA_OF_ASC_NODE": 176.5149, "ARG_OF_PERICENTER": 255.076, "MEAN_ANOMALY": 31.052, "EPHEMERIS_TYPE": 0, "CLASSIFICATION_TYPE": "U", "NORAD_CAT_ID": 66805, "ELEMENT_SET_NO": 999, "REV_AT_EPOCH": 498, "BSTAR": -0.042719498, "MEAN_MOTION_DOT": -0.02065556, "MEAN_MOTION_DDOT": 0}, "tle": {"line1": "1 66805U 25278Q   25359.33334491 -.02065556  00000+0 -42719-1 0  9997", "line2": "2 66805  43.0002 176.5149 0001335 255.0760  31.0520 15.48431112  4988"}}, "geometry": {"type": "Point", "coordinates": [2.9169094960848176, -7.895389377062757]}}, {"type": "Feature", "properties": {"norad_id": 66806, "name": "STARLINK-36069", "group": "last-30-days", "lat": -10.520695601006107, "lon": 5.845079383177907, "alt_km": 415.73462429671235, "timestamp": "2025-12-25T16:53:13.372647+00:00", "meta": {"OBJECT_NAME": "STARLINK-36069", "OBJECT_ID": "2025-278R", "EPOCH": "2025-12-25T08:00:01.000224", "MEAN_MOTION": 15.50511633, "ECCENTRICITY": 0.00020405, "INCLINATION": 43.0003, "RA_OF_ASC_NODE": 176.5157, "ARG_OF_PERICENTER": 267.3864, "MEAN_ANOMALY": 18.7189, "EPHEMERIS_TYPE": 0, "CLASSIFICATION_TYPE": "U", "NORAD_CAT_ID": 66806, "ELEMENT_SET_NO": 999, "REV_AT_EPOCH": 477, "BSTAR": 0.0012003698, "MEAN_MOTION_DOT": 0.00070547, "MEAN_MOTION_DDOT": 0}, "tle": {"line1": "1 66806U 25278R   25359.33334491  .00070547  00000+0  12004-2 0  9995", "line2": "2 66806  43.0003 176.5157 0002040 267.3864  18.7189 15.50511633  4774"}}, "geometry": {"type": "Point", "coordinates": [5.845079383177907, -10.520695601006107]}}, {"type": "Feature", "properties": {"norad_id": 66807, "name": "STARLINK-36000", "group": "last-30-days", "lat": -14.329140666531773, "lon": 10.245090505102079, "alt_km": 416.1203137538332, "timestamp": "2025-12-25T16:53:13.372657+00:00", "meta": {"OBJECT_NAME": "STARLINK-36000", "OBJECT_ID": "2025-278S", "EPOCH": "2025-12-25T08:00:01.000224", "MEAN_MOTION": 15.50511989, "ECCENTRICITY": 0.00016524, "INCLINATION": 43.0003, "RA_OF_ASC_NODE": 176.5019, "ARG_OF_PERICENTER": 269.0024, "MEAN_ANOMALY": 22.8506, "EPHEMERIS_TYPE": 0, "CLASSIFICATION_TYPE": "U", "NORAD_CAT_ID": 66807, "ELEMENT_SET_NO": 999, "REV_AT_EPOCH": 504, "BSTAR": 0.0012178422, "MEAN_MOTION_DOT": 0.00071588, "MEAN_MOTION_DDOT": 0}, "tle": {"line1": "1 66807U 25278S   25359.33334491  .00071588  00000+0  12178-2 0  9994", "line2": "2 66807  43.0003 176.5019 0001652 269.0024  22.8506 15.50511989  5041"}}, "geometry": {"type": "Point", "coordinates": [10.245090505102079, -14.329140666531773]}}, {"type": "Feature", "properties": {"norad_id": 66808, "name": "STARLINK-36071", "group": "last-30-days", "lat": -15.581586979903323, "lon": 11.743742947702373, "alt_km": 416.23851102118624, "timestamp": "2025-12-25T16:53:13.372667+00:00", "meta": {"OBJECT_NAME": "STARLINK-36071", "OBJECT_ID": "2025-278T", "EPOCH": "2025-12-25T08:00:01.000224", "MEAN_MOTION": 15.50508309, "ECCENTRICITY": 0.00015123, "INCLINATION": 43.0003, "RA_OF_ASC_NODE": 176.4974, "ARG_OF_PERICENTER": 268.4925, "MEAN_ANOMALY": 25.2807, "EPHEMERIS_TYPE": 0, "CLASSIFICATION_TYPE": "U", "NORAD_CAT_ID": 66808, "ELEMENT_SET_NO": 999, "REV_AT_EPOCH": 498, "BSTAR": 0.0012717863, "MEAN_MOTION_DOT": 0.00074795, "MEAN_MOTION_DDOT": 0}, "tle": {"line1": "1 66808U 25278T   25359.33334491  .00074795  00000+0  12718-2 0  9998", "line2": "2 66808  43.0003 176.4974 0001512 268.4925  25.2807 15.50508309  4984"}}, "geometry": {"type": "Point", "coordinates": [11.743742947702373, -15.581586979903323]}}]}